{
  "norad_id": 65864,
  "name": "STARLINK-35471",
  "history": [
    {
      "epoch": "2026-03-28T14:23:09.452544Z",
      "apogee_km": 476.2148074252709,
      "perigee_km": 474.1697739649271,
      "latitude_deg": 2.5487945025763984e-05,
      "longitude_deg": 164.33098723676673,
      "height_km": 476.09633145849006,
      "semi_major_axis_km": 6853.329290695098,
      "eccentricity": 0.0001492,
      "inclination_deg": 53.1593,
      "raan_deg": 206.1379,
      "arg_perigee_deg": 90.3558,
      "mean_anomaly_deg": 269.7614,
      "mean_motion_rev_day": 15.30207629
    },
    {
      "epoch": "2026-03-29T01:21:32.120928Z",
      "apogee_km": 476.23326532099236,
      "perigee_km": 474.17452171657897,
      "latitude_deg": 1.3861349754101227e-05,
      "longitude_deg": -2.8380167486488523,
      "height_km": 476.10188175984916,
      "semi_major_axis_km": 6853.340893518785,
      "eccentricity": 0.0001502,
      "inclination_deg": 53.1592,
      "raan_deg": 204.014,
      "arg_perigee_deg": 90.0179,
      "mean_anomaly_deg": 270.0994,
      "mean_motion_rev_day": 15.30203743
    },
    {
      "epoch": "2026-03-30T00:52:20.135424Z",
      "apogee_km": 475.94202744305494,
      "perigee_km": 474.4207278295862,
      "latitude_deg": -1.6582946830795e-05,
      "longitude_deg": -1.0548577619633783,
      "height_km": 476.0007783941988,
      "semi_major_axis_km": 6853.31837763632,
      "eccentricity": 0.00011099,
      "inclination_deg": 53.1602,
      "raan_deg": 199.4629,
      "arg_perigee_deg": 84.0439,
      "mean_anomaly_deg": 276.0688,
      "mean_motion_rev_day": 15.30211284
    },
    {
      "epoch": "2026-03-30T13:24:46.031040Z",
      "apogee_km": 476.12486277796506,
      "perigee_km": 474.2467781922396,
      "latitude_deg": -6.311122404638035e-05,
      "longitude_deg": 167.89628865169297,
      "height_km": 475.8511486503417,
      "semi_major_axis_km": 6853.322820485102,
      "eccentricity": 0.00013702,
      "inclination_deg": 53.1604,
      "raan_deg": 197.037,
      "arg_perigee_deg": 75.6505,
      "mean_anomaly_deg": 284.4647,
      "mean_motion_rev_day": 15.30209796
    },
    {
      "epoch": "2026-03-31T12:55:33.786336Z",
      "apogee_km": 475.5154022679744,
      "perigee_km": 474.95287756480957,
      "latitude_deg": 8.396099055058644e-06,
      "longitude_deg": 169.6802072971987,
      "height_km": 476.2803742983108,
      "semi_major_axis_km": 6853.371139916392,
      "eccentricity": 4.104e-05,
      "inclination_deg": 53.1618,
      "raan_deg": 192.4855,
      "arg_perigee_deg": 121.4546,
      "mean_anomaly_deg": 238.6495,
      "mean_motion_rev_day": 15.30193613
    },
    {
      "epoch": "2026-04-01T06:10:08.992992Z",
      "apogee_km": 475.7858774043616,
      "perigee_km": 474.5865458423268,
      "latitude_deg": 5.819807056833448e-06,
      "longitude_deg": -93.0109375434213,
      "height_km": 476.2069058859915,
      "semi_major_axis_km": 6853.323211623344,
      "eccentricity": 8.75e-05,
      "inclination_deg": 53.1602,
      "raan_deg": 189.1492,
      "arg_perigee_deg": 101.7427,
      "mean_anomaly_deg": 258.3672,
      "mean_motion_rev_day": 15.30209665
    },
    {
      "epoch": "2026-04-02T15:05:15.875808Z",
      "apogee_km": 475.83354157938993,
      "perigee_km": 474.5396340860061,
      "latitude_deg": -1.1789819347698575e-05,
      "longitude_deg": 125.48905430859249,
      "height_km": 476.27580675211834,
      "semi_major_axis_km": 6853.323587832698,
      "eccentricity": 9.44e-05,
      "inclination_deg": 53.1601,
      "raan_deg": 182.7798,
      "arg_perigee_deg": 107.1376,
      "mean_anomaly_deg": 252.9728,
      "mean_motion_rev_day": 15.30209539
    },
    {
      "epoch": "2026-04-02T15:05:15.876672Z",
      "apogee_km": 475.8334730461547,
      "perigee_km": 474.53970261924223,
      "latitude_deg": -1.09076540847685e-05,
      "longitude_deg": 125.4890513559819,
      "height_km": 476.2757865579016,
      "semi_major_axis_km": 6853.323587832698,
      "eccentricity": 9.439e-05,
      "inclination_deg": 53.1601,
      "raan_deg": 182.7798,
      "arg_perigee_deg": 107.1376,
      "mean_anomaly_deg": 252.9728,
      "mean_motion_rev_day": 15.30209539
    },
    {
      "epoch": "2026-04-03T14:36:02.972736Z",
      "apogee_km": 475.81096747079937,
      "perigee_km": 474.62670758207423,
      "latitude_deg": -2.9901757496420235e-05,
      "longitude_deg": 127.27875584146221,
      "height_km": 475.9905481604661,
      "semi_major_axis_km": 6853.3558375264365,
      "eccentricity": 8.64e-05,
      "inclination_deg": 53.1577,
      "raan_deg": 178.2314,
      "arg_perigee_deg": 77.6452,
      "mean_anomaly_deg": 282.4645,
      "mean_motion_rev_day": 15.30198738
    },
    {
      "epoch": "2026-04-04T15:40:54.977376Z",
      "apogee_km": 476.07150270434704,
      "perigee_km": 474.3033450029916,
      "latitude_deg": 4.032559564712922e-06,
      "longitude_deg": 105.1736497904189,
      "height_km": 476.0096123312258,
      "semi_major_axis_km": 6853.324423853669,
      "eccentricity": 0.000129,
      "inclination_deg": 53.1572,
      "raan_deg": 173.373,
      "arg_perigee_deg": 85.0965,
      "mean_anomaly_deg": 275.0183,
      "mean_motion_rev_day": 15.30209259
    },
    {
      "epoch": "2026-04-05T12:03:37.859328Z",
      "apogee_km": 476.2294089357147,
      "perigee_km": 474.30552123427606,
      "latitude_deg": 2.6091543104608736e-06,
      "longitude_deg": 154.715854227313,
      "height_km": 475.8571234095492,
      "semi_major_axis_km": 6853.404465084995,
      "eccentricity": 0.00014036,
      "inclination_deg": 53.1574,
      "raan_deg": 169.4308,
      "arg_perigee_deg": 71.3225,
      "mean_anomaly_deg": 288.7928,
      "mean_motion_rev_day": 15.30182452
    },
    {
      "epoch": "2026-04-06T05:18:12.847392Z",
      "apogee_km": 476.09704765244896,
      "perigee_km": 474.2310308454835,
      "latitude_deg": 5.8742633316300865e-05,
      "longitude_deg": -107.97603597776173,
      "height_km": 475.7607636268294,
      "semi_major_axis_km": 6853.301039248966,
      "eccentricity": 0.00013614,
      "inclination_deg": 53.1567,
      "raan_deg": 166.0928,
      "arg_perigee_deg": 71.1807,
      "mean_anomaly_deg": 288.9342,
      "mean_motion_rev_day": 15.30217091
    },
    {
      "epoch": "2026-04-07T11:05:12.588000Z",
      "apogee_km": 476.1029138553358,
      "perigee_km": 474.36983279668857,
      "latitude_deg": 4.6542651475859075e-05,
      "longitude_deg": 158.28757736570327,
      "height_km": 475.8169350669196,
      "semi_major_axis_km": 6853.3733733260115,
      "eccentricity": 0.00012644,
      "inclination_deg": 53.1572,
      "raan_deg": 160.3285,
      "arg_perigee_deg": 68.5179,
      "mean_anomaly_deg": 291.5957,
      "mean_motion_rev_day": 15.30192865
    },
    {
      "epoch": "2026-04-08T13:44:07.431072Z",
      "apogee_km": 476.3345736218607,
      "perigee_km": 474.0011603807434,
      "latitude_deg": 6.699300378329409e-05,
      "longitude_deg": 112.30815867857808,
      "height_km": 475.43033324091977,
      "semi_major_axis_km": 6853.304867001301,
      "eccentricity": 0.00017024,
      "inclination_deg": 53.1575,
      "raan_deg": 155.172,
      "arg_perigee_deg": 57.0178,
      "mean_anomaly_deg": 303.0987,
      "mean_motion_rev_day": 15.30215809
    },
    {
      "epoch": "2026-04-09T10:06:50.539392Z",
      "apogee_km": 476.24038871918856,
      "perigee_km": 474.2397508849717,
      "latitude_deg": 4.494845675150012e-05,
      "longitude_deg": 161.8488006507416,
      "height_km": 475.6937520411442,
      "semi_major_axis_km": 6853.37706980208,
      "eccentricity": 0.00014596,
      "inclination_deg": 53.1578,
      "raan_deg": 151.2292,
      "arg_perigee_deg": 63.6431,
      "mean_anomaly_deg": 296.472,
      "mean_motion_rev_day": 15.30191627
    },
    {
      "epoch": "2026-04-10T12:45:43.680384Z",
      "apogee_km": 476.0572578705269,
      "perigee_km": 474.1835772925597,
      "latitude_deg": -3.141509795478026e-05,
      "longitude_deg": 115.87382163911866,
      "height_km": 475.6464272336227,
      "semi_major_axis_km": 6853.2574175815425,
      "eccentricity": 0.0001367,
      "inclination_deg": 53.1588,
      "raan_deg": 146.0701,
      "arg_perigee_deg": 66.6055,
      "mean_anomaly_deg": 293.5089,
      "mean_motion_rev_day": 15.30231701
    },
    {
      "epoch": "2026-04-11T20:06:47.883744Z",
      "apogee_km": 476.2132558568801,
      "perigee_km": 474.3271981880034,
      "latitude_deg": -3.360995905527131e-05,
      "longitude_deg": -1.7500431190556018,
      "height_km": 475.95936171755534,
      "semi_major_axis_km": 6853.4072270224415,
      "eccentricity": 0.0001376,
      "inclination_deg": 53.1597,
      "raan_deg": 140.0013,
      "arg_perigee_deg": 77.2072,
      "mean_anomaly_deg": 282.9082,
      "mean_motion_rev_day": 15.30181527
    },
    {
      "epoch": "2026-04-13T06:00:02.000160Z",
      "apogee_km": 476.12246473474715,
      "perigee_km": 474.3127679147601,
      "latitude_deg": -32.999342353860904,
      "longitude_deg": 50.925983267703934,
      "height_km": 486.256318516722,
      "semi_major_axis_km": 6853.354616324753,
      "eccentricity": 0.00013203,
      "inclination_deg": 53.1599,
      "raan_deg": 133.442,
      "arg_perigee_deg": 80.0563,
      "mean_anomaly_deg": 142.5213,
      "mean_motion_rev_day": 15.30199147
    },
    {
      "epoch": "2026-04-14T18:39:10.592352Z",
      "apogee_km": 476.13914306823426,
      "perigee_km": 474.2284372319409,
      "latitude_deg": 3.6095878115569115e-05,
      "longitude_deg": 3.6029304875153327,
      "height_km": 475.8483192485457,
      "semi_major_axis_km": 6853.320790150087,
      "eccentricity": 0.0001394,
      "inclination_deg": 53.1588,
      "raan_deg": 126.3458,
      "arg_perigee_deg": 75.8648,
      "mean_anomaly_deg": 284.2508,
      "mean_motion_rev_day": 15.30210476
    }
  ]
}